[{"OBJECT_NAME":"KHALIFASAT","OBJECT_ID":"2018-084F","EPOCH":"2026-03-09T22:37:07.705056","MEAN_MOTION":15.0097364,"ECCENTRICITY":0.00062701,"INCLINATION":98.0864,"RA_OF_ASC_NODE":247.4233,"ARG_OF_PERICENTER":83.8573,"MEAN_ANOMALY":276.3364,"EPHEMERIS_TYPE":0,"CLASSIFICATION_TYPE":"U","NORAD_CAT_ID":43676,"ELEMENT_SET_NO":999,"REV_AT_EPOCH":40088,"BSTAR":0.00043724412,"MEAN_MOTION_DOT":5.516e-5,"MEAN_MOTION_DDOT":0},{"OBJECT_NAME":"HELIOS 2A","OBJECT_ID":"2004-049A","EPOCH":"2026-03-09T21:12:23.746752","MEAN_MOTION":15.02457036,"ECCENTRICITY":0.00022964,"INCLINATION":98.268,"RA_OF_ASC_NODE":116.0483,"ARG_OF_PERICENTER":298.4853,"MEAN_ANOMALY":61.6139,"EPHEMERIS_TYPE":0,"CLASSIFICATION_TYPE":"U","NORAD_CAT_ID":28492,"ELEMENT_SET_NO":999,"REV_AT_EPOCH":13885,"BSTAR":0.0002328623,"MEAN_MOTION_DOT":3.02e-5,"MEAN_MOTION_DDOT":0}]
